{
  "type": "FeatureCollection",
  "features": [
    {
      "type": "Feature",
      "properties": {
        "norad_id": 66560,
        "name": "STARLINK-35411",
        "group": "last-30-days",
        "lat": -24.705834654789967,
        "lon": 47.29663826084991,
        "alt_km": 421.4230346929544,
        "timestamp": "2025-12-20T07:33:49.511776+00:00",
        "meta_object_name": "STARLINK-35411",
        "meta_object_id": "2025-268D",
        "meta_epoch": "2025-12-19T22:27:04.696128",
        "meta_mean_motion": 15.50696148,
        "meta_eccentricity": 0.00084821,
        "meta_inclination": 42.9991,
        "meta_ra_of_asc_node": 79.1048,
        "meta_arg_of_pericenter": 181.8382,
        "meta_mean_anomaly": 178.2449,
        "meta_ephemeris_type": 0,
        "meta_classification_type": "U",
        "meta_norad_cat_id": 66560,
        "meta_element_set_no": 999,
        "meta_rev_at_epoch": 574,
        "meta_bstar": -0.0008891421,
        "meta_mean_motion_dot": -0.0005246,
        "meta_mean_motion_ddot": 0,
        "tle_line1": "1 66560U 25268D   25353.93547102 -.00052460  00000+0 -88914-3 0  9996",
        "tle_line2": "2 66560  42.9991  79.1048 0008482 181.8382 178.2449 15.50696148  5747"
      },
      "geometry": {
        "type": "Point",
        "coordinates": [
          47.29663826084991,
          -24.705834654789967
        ]
      }
    },
    {
      "type": "Feature",
      "properties": {
        "norad_id": 66561,
        "name": "STARLINK-35305",
        "group": "last-30-days",
        "lat": -22.19304768226297,
        "lon": 50.909537983685844,
        "alt_km": 418.5898795612702,
        "timestamp": "2025-12-20T07:33:49.511787+00:00",
        "meta_object_name": "STARLINK-35305",
        "meta_object_id": "2025-268E",
        "meta_epoch": "2025-12-19T22:26:01.016736",
        "meta_mean_motion": 15.50693186,
        "meta_eccentricity": 0.00175549,
        "meta_inclination": 42.9991,
        "meta_ra_of_asc_node": 79.0994,
        "meta_arg_of_pericenter": 224.6244,
        "meta_mean_anomaly": 135.3204,
        "meta_ephemeris_type": 0,
        "meta_classification_type": "U",
        "meta_norad_cat_id": 66561,
        "meta_element_set_no": 999,
        "meta_rev_at_epoch": 574,
        "meta_bstar": 0.0010423379,
        "meta_mean_motion_dot": 0.00061917,
        "meta_mean_motion_ddot": 0,
        "tle_line1": "1 66561U 25268E   25353.93473399  .00061917  00000+0  10423-2 0  9997",
        "tle_line2": "2 66561  42.9991  79.0994 0017554 224.6244 135.3204 15.50693186  5742"
      },
      "geometry": {
        "type": "Point",
        "coordinates": [
          50.909537983685844,
          -22.19304768226297
        ]
      }
    },
    {
      "type": "Feature",
      "properties": {
        "norad_id": 66562,
        "name": "STARLINK-35579",
        "group": "last-30-days",
        "lat": -23.384854075554717,
        "lon": 49.228094723294376,
        "alt_km": 418.66484515657976,
        "timestamp": "2025-12-20T07:33:49.511798+00:00",
        "meta_object_name": "STARLINK-35579",
        "meta_object_id": "2025-268F",
        "meta_epoch": "2025-12-19T22:26:30.924960",
        "meta_mean_motion": 15.50667537,
        "meta_eccentricity": 0.00156288,
        "meta_inclination": 43.0012,
        "meta_ra_of_asc_node": 79.0997,
        "meta_arg_of_pericenter": 221.7694,
        "meta_mean_anomaly": 138.1974,
        "meta_ephemeris_type": 0,
        "meta_classification_type": "U",
        "meta_norad_cat_id": 66562,
        "meta_element_set_no": 999,
        "meta_rev_at_epoch": 574,
        "meta_bstar": 0.0014298058,
        "meta_mean_motion_dot": 0.00085121,
        "meta_mean_motion_ddot": 0,
        "tle_line1": "1 66562U 25268F   25353.93508015  .00085121  00000+0  14298-2 0  9999",
        "tle_line2": "2 66562  43.0012  79.0997 0015628 221.7694 138.1974 15.50667537  5745"
      },
      "geometry": {
        "type": "Point",
        "coordinates": [
          49.228094723294376,
          -23.384854075554717
        ]
      }
    },
    {
      "type": "Feature",
      "properties": {
        "norad_id": 66563,
        "name": "STARLINK-35437",
        "group": "last-30-days",
        "lat": -21.12608499804651,
        "lon": 52.36979008987879,
        "alt_km": 419.38411240586265,
        "timestamp": "2025-12-20T07:33:49.511811+00:00",
        "meta_object_name": "STARLINK-35437",
        "meta_object_id": "2025-268G",
        "meta_epoch": "2025-12-19T22:25:32.584224",
        "meta_mean_motion": 15.50635753,
        "meta_eccentricity": 0.00174619,
        "meta_inclination": 42.9994,
        "meta_ra_of_asc_node": 79.0955,
        "meta_arg_of_pericenter": 223.4436,
        "meta_mean_anomaly": 136.5048,
        "meta_ephemeris_type": 0,
        "meta_classification_type": "U",
        "meta_norad_cat_id": 66563,
        "meta_element_set_no": 999,
        "meta_rev_at_epoch": 574,
        "meta_bstar": 9.0047369e-05,
        "meta_mean_motion_dot": 4.977e-05,
        "meta_mean_motion_ddot": 0,
        "tle_line1": "1 66563U 25268G   25353.93440491  .00004977  00000+0  90047-4 0  9991",
        "tle_line2": "2 66563  42.9994  79.0955 0017461 223.4436 136.5048 15.50635753  5746"
      },
      "geometry": {
        "type": "Point",
        "coordinates": [
          52.36979008987879,
          -21.12608499804651
        ]
      }
    },
    {
      "type": "Feature",
      "properties": {
        "norad_id": 66564,
        "name": "STARLINK-35358",
        "group": "last-30-days",
        "lat": -18.589242178548826,
        "lon": 55.70168890945475,
        "alt_km": 411.7017990107206,
        "timestamp": "2025-12-20T07:33:49.511823+00:00",
        "meta_object_name": "STARLINK-35358",
        "meta_object_id": "2025-268H",
        "meta_epoch": "2025-12-19T14:41:22.868736",
        "meta_mean_motion": 15.5102121,
        "meta_eccentricity": 0.0002353,
        "meta_inclination": 43.0039,
        "meta_ra_of_asc_node": 80.9756,
        "meta_arg_of_pericenter": 55.2616,
        "meta_mean_anomaly": 304.8465,
        "meta_ephemeris_type": 0,
        "meta_classification_type": "U",
        "meta_norad_cat_id": 66564,
        "meta_element_set_no": 999,
        "meta_rev_at_epoch": 569,
        "meta_bstar": 0.014889,
        "meta_mean_motion_dot": 0.00971033,
        "meta_mean_motion_ddot": 0,
        "tle_line1": "1 66564U 25268H   25353.61207024  .00971033  00000+0  14889-1 0  9993",
        "tle_line2": "2 66564  43.0039  80.9756 0002353  55.2616 304.8465 15.51021210  5699"
      },
      "geometry": {
        "type": "Point",
        "coordinates": [
          55.70168890945475,
          -18.589242178548826
        ]
      }
    },
    {
      "type": "Feature",
      "properties": {
        "norad_id": 66565,
        "name": "STARLINK-35893",
        "group": "last-30-days",
        "lat": -18.613773377236495,
        "lon": 55.67068266149382,
        "alt_km": 419.62435835275846,
        "timestamp": "2025-12-20T07:33:49.511833+00:00",
        "meta_object_name": "STARLINK-35893",
        "meta_object_id": "2025-268J",
        "meta_epoch": "2025-12-19T22:24:31.861440",
        "meta_mean_motion": 15.50690307,
        "meta_eccentricity": 0.0018796,
        "meta_inclination": 43.003,
        "meta_ra_of_asc_node": 79.0889,
        "meta_arg_of_pericenter": 225.3899,
        "meta_mean_anomaly": 134.5429,
        "meta_ephemeris_type": 0,
        "meta_classification_type": "U",
        "meta_norad_cat_id": 66565,
        "meta_element_set_no": 999,
        "meta_rev_at_epoch": 574,
        "meta_bstar": 0.00020909929,
        "meta_mean_motion_dot": 0.00012071,
        "meta_mean_motion_ddot": 0,
        "tle_line1": "1 66565U 25268J   25353.93370210  .00012071  00000+0  20910-3 0  9999",
        "tle_line2": "2 66565  43.0030  79.0889 0018796 225.3899 134.5429 15.50690307  5740"
      },
      "geometry": {
        "type": "Point",
        "coordinates": [
          55.67068266149382,
          -18.613773377236495
        ]
      }
    },
    {
      "type": "Feature",
      "properties": {
        "norad_id": 66566,
        "name": "STARLINK-35871",
        "group": "last-30-days",
        "lat": -17.42116109731881,
        "lon": 57.1767465272736,
        "alt_km": 420.30046097372815,
        "timestamp": "2025-12-20T07:33:49.511844+00:00",
        "meta_object_name": "STARLINK-35871",
        "meta_object_id": "2025-268K",
        "meta_epoch": "2025-12-19T22:24:07.140672",
        "meta_mean_motion": 15.50860434,
        "meta_eccentricity": 0.00079667,
        "meta_inclination": 43.0009,
        "meta_ra_of_asc_node": 79.0887,
        "meta_arg_of_pericenter": 183.1047,
        "meta_mean_anomaly": 176.9765,
        "meta_ephemeris_type": 0,
        "meta_classification_type": "U",
        "meta_norad_cat_id": 66566,
        "meta_element_set_no": 999,
        "meta_rev_at_epoch": 574,
        "meta_bstar": 0.001663691,
        "meta_mean_motion_dot": 0.00099611,
        "meta_mean_motion_ddot": 0,
        "tle_line1": "1 66566U 25268K   25353.93341598  .00099611  00000+0  16637-2 0  9992",
        "tle_line2": "2 66566  43.0009  79.0887 0007966 183.1047 176.9765 15.50860434  5741"
      },
      "geometry": {
        "type": "Point",
        "coordinates": [
          57.1767465272736,
          -17.42116109731881
        ]
      }
    }
  ]
}